STARLINK-32394          
1 61853U 24202J   26196.14626102 -.00000685  00000+0 -15380-4 0  9990
2 61853  42.9997 237.9086 0001265 274.3347  85.7360 15.27575864 94826
STARLINK-32486          
1 61854U 24202K   26196.15012148 -.00000616  00000+0 -12854-4 0  9998
2 61854  43.0008 237.9384 0001106 270.1152  89.9573 15.27571706 94839
STARLINK-32391          
1 61855U 24202L   26196.08859057 -.00001505  00000+0 -45201-4 0  9999
2 61855  42.9996 238.3364 0001179 271.3126  88.7590 15.27573113 94819
STARLINK-32483          
1 61856U 24202M   26196.15783419  .00004376  00000+0  16861-3 0  9992
2 61856  43.0046 237.9971 0001515 282.4777  77.5905 15.27546525 94831
STARLINK-32451          
1 61857U 24202N   26196.16553456 -.00005510  00000+0 -19074-3 0  9992
2 61857  42.9971 238.0528 0000594 168.5219 191.5646 15.27599280 94833
STARLINK-32556          
1 61858U 24202P   26196.16168160  .00000198  00000+0  16737-4 0  9996
2 61858  43.0020 238.0240 0001430 275.3843  84.6846 15.27571944 94833
STARLINK-32466          
1 61859U 24202Q   26196.16810963 -.00000851  00000+0 -21403-4 0  9996
2 61859  43.0039 238.0730 0001368 263.9200  96.1496 15.27571155 94831
STARLINK-32316          
1 61860U 24202R   26196.15189343 -.00001167  00000+0 -32907-4 0  9990
2 61860  43.0017 234.4878 0000842 261.0479  99.0277 15.27578355 94866
STARLINK-32415          
1 61861U 24202S   26196.17581644 -.00000598  00000+0 -12207-4 0  9991
2 61861  43.0024 238.1315 0001381 275.1307  84.9387 15.27580867 94829
STARLINK-32393          
1 61862U 24202T   26196.17196823 -.00000246  00000+0  60579-6 0  9999
2 61862  43.0024 238.1024 0001742 284.3048  75.7610 15.27585082 94834
STARLINK-32324          
1 61863U 24202U   26196.11813891  .00000993  00000+0  45612-4 0  9992
2 61863  43.0031 238.5608 0001309 261.6409  98.4294 15.27565600 94815
STARLINK-32318          
1 61864U 24202V   26196.18995091 -.00000015  00000+0  89847-5 0  9998
2 61864  42.9995 238.2373 0001735 273.9485  86.1169 15.27576095 94839
STARLINK-32401          
1 61865U 24202W   26196.12842271 -.00000294  00000+0 -11443-5 0  9991
2 61865  43.0007 238.6338 0001475 275.1872  84.8811 15.27574787 94820
STARLINK-32588          
1 61866U 24202X   26196.18738200 -.00000043  00000+0  79709-5 0  9994
2 61866  43.0002 238.2180 0001305 258.3708 101.6998 15.27575507 94836
STARLINK-32569          
1 61867U 24202Y   26196.19766249 -.00000184  00000+0  28379-5 0  9993
2 61867  43.0015 238.2932 0001526 272.9641  87.1036 15.27573606 94838
STARLINK-11402 [DTC]    
1 61874U 24204A   26195.98794316 -.00001511  00000+0 -76213-5 0  9991
2 61874  53.1577  89.0912 0000681 127.3747 232.7333 15.69713391 97498
STARLINK-11316 [DTC]    
1 61875U 24204B   26196.12009053 -.00000965  00000+0 -31133-5 0  9990
2 61875  53.1589  87.7390 0001069  77.5499 282.5638 15.69704046 96934
STARLINK-11321 [DTC]    
1 61877U 24204D   26196.10546728 -.00002384  00000+0 -14825-4 0  9990
2 61877  53.1599  88.3782 0000793  87.2468 272.8640 15.69715285 96916
STARLINK-11314 [DTC]    
1 61878U 24204E   26196.16424509  .00008346  00000+0  73819-4 0  9999
2 61878  53.1590  88.0315 0001220  70.2454 289.8695 15.69661438 96930
STARLINK-11324 [DTC]    
1 61879U 24204F   26196.09565759 -.00000307  00000+0  23197-5 0  9990
2 61879  53.1594  88.3127 0000862  99.3426 260.7689 15.69707207 96926
STARLINK-11328 [DTC]    
1 61880U 24204G   26196.09075865 -.00000909  00000+0 -26481-5 0  9994
2 61880  53.1599  88.2771 0000922  83.9226 276.1897 15.69694658 96928
STARLINK-11329 [DTC]    
1 61881U 24204H   26195.95849940 -.00007759  00000+0 -59149-4 0  9998
2 61881  53.1582  88.8767 0000518  67.0225 293.0847 15.69752560 96903
STARLINK-11398 [DTC]    
1 61882U 24204J   26195.95355971  .00006253  00000+0  56330-4 0  9990
2 61882  53.1594  88.8397 0001378  73.6417 286.4752 15.69755669 96901
STARLINK-11383 [DTC]    
1 61883U 24204K   26196.07113045 -.00001621  00000+0 -85308-5 0  9993
2 61883  53.1575  88.1492 0000803 124.6396 235.4698 15.69707100 96927
STARLINK-11359 [DTC]    
1 61884U 24204L   26196.01236851 -.00001050  00000+0 -38145-5 0  9992
2 61884  53.1589  88.4940 0000838 103.7192 256.3919 15.69707179 96917
STARLINK-11301 [DTC]    
1 61885U 24204M   26196.06622925 -.00001053  00000+0 -38384-5 0  9997
2 61885  53.1592  88.1158 0001058  77.8695 282.2442 15.69702967 96924
STARLINK-11351 [DTC]    
1 61886U 24204N   26196.12498767  .00000171  00000+0  62702-5 0  9999
2 61886  53.1580  87.7677 0001199 107.2583 252.8566 15.69705866 96935
STARLINK-32410          
1 61887U 24204P   26196.19285885  .00000557  00000+0  27613-4 0  9991
2 61887  53.1587 252.3795 0000996  97.0953 263.0163 15.34384888 94658
STARLINK-32377          
1 61888U 24204Q   26196.19074772  .00001288  00000+0  49251-4 0  9997
2 61888  53.1583 252.3645 0001149  85.9860 274.1274 15.34398696 94640
STARLINK-32292          
1 61889U 24204R   26195.42175163 -.00001332  00000+0 -28322-4 0  9997
2 61889  53.1592 256.0989 0001199  84.0683 276.0456 15.34382984 94535
