OBJECT_NAME,OBJECT_ID,EPOCH,MEAN_MOTION,ECCENTRICITY,INCLINATION,RA_OF_ASC_NODE,ARG_OF_PERICENTER,MEAN_ANOMALY,EPHEMERIS_TYPE,CLASSIFICATION_TYPE,NORAD_CAT_ID,ELEMENT_SET_NO,REV_AT_EPOCH,BSTAR,MEAN_MOTION_DOT,MEAN_MOTION_DDOT
STARLINK-32394,2024-202J,2026-07-15T03:30:36.952128,15.27575864,.0001265,42.9997,237.9086,274.3347,85.7360,0,U,61853,999,9482,-.1538E-4,-.685E-5,0
STARLINK-32486,2024-202K,2026-07-15T03:36:10.495872,15.27571706,.0001106,43.0008,237.9384,270.1152,89.9573,0,U,61854,999,9483,-.12854E-4,-.616E-5,0
STARLINK-32391,2024-202L,2026-07-15T02:07:34.225248,15.27573113,.0001179,42.9996,238.3364,271.3126,88.7590,0,U,61855,999,9481,-.45201E-4,-.1505E-4,0
STARLINK-32483,2024-202M,2026-07-15T03:47:16.874016,15.27546525,.0001515,43.0046,237.9971,282.4777,77.5905,0,U,61856,999,9483,.16861E-3,.4376E-4,0
STARLINK-32451,2024-202N,2026-07-15T03:58:22.185984,15.27599280,.0000594,42.9971,238.0528,168.5219,191.5646,0,U,61857,999,9483,-.19074E-3,-.551E-4,0
STARLINK-32556,2024-202P,2026-07-15T03:52:49.290240,15.27571944,.000143,43.0020,238.0240,275.3843,84.6846,0,U,61858,999,9483,.16737E-4,.198E-5,0
STARLINK-32466,2024-202Q,2026-07-15T04:02:04.672032,15.27571155,.0001368,43.0039,238.0730,263.9200,96.1496,0,U,61859,999,9483,-.21403E-4,-.851E-5,0
STARLINK-32316,2024-202R,2026-07-15T03:38:43.592352,15.27578355,.0000842,43.0017,234.4878,261.0479,99.0277,0,U,61860,999,9486,-.32907E-4,-.1167E-4,0
STARLINK-32415,2024-202S,2026-07-15T04:13:10.540416,15.27580867,.0001381,43.0024,238.1315,275.1307,84.9387,0,U,61861,999,9482,-.12207E-4,-.598E-5,0
STARLINK-32393,2024-202T,2026-07-15T04:07:38.055072,15.27585082,.0001742,43.0024,238.1024,284.3048,75.7610,0,U,61862,999,9483,.60579E-6,-.246E-5,0
STARLINK-32324,2024-202U,2026-07-15T02:50:07.201824,15.27565600,.0001309,43.0031,238.5608,261.6409,98.4294,0,U,61863,999,9481,.45612E-4,.993E-5,0
STARLINK-32318,2024-202V,2026-07-15T04:33:31.758624,15.27576095,.0001735,42.9995,238.2373,273.9485,86.1169,0,U,61864,999,9483,.89847E-5,-.15E-6,0
STARLINK-32401,2024-202W,2026-07-15T03:04:55.722144,15.27574787,.0001475,43.0007,238.6338,275.1872,84.8811,0,U,61865,999,9482,-.11443E-5,-.294E-5,0
STARLINK-32588,2024-202X,2026-07-15T04:29:49.804800,15.27575507,.0001305,43.0002,238.2180,258.3708,101.6998,0,U,61866,999,9483,.79709E-5,-.43E-6,0
STARLINK-32569,2024-202Y,2026-07-15T04:44:38.039136,15.27573606,.0001526,43.0015,238.2932,272.9641,87.1036,0,U,61867,999,9483,.28379E-5,-.184E-5,0
STARLINK-11402 [DTC],2024-204A,2026-07-14T23:42:38.289024,15.69713391,.0000681,53.1577,89.0912,127.3747,232.7333,0,U,61874,999,9749,-.76213E-5,-.1511E-4,0
STARLINK-11316 [DTC],2024-204B,2026-07-15T02:52:55.821792,15.69704046,.0001069,53.1589,87.7390,77.5499,282.5638,0,U,61875,999,9693,-.31133E-5,-.965E-5,0
STARLINK-11321 [DTC],2024-204D,2026-07-15T02:31:52.372992,15.69715285,.0000793,53.1599,88.3782,87.2468,272.8640,0,U,61877,999,9691,-.14825E-4,-.2384E-4,0
STARLINK-11314 [DTC],2024-204E,2026-07-15T03:56:30.775776,15.69661438,.000122,53.1590,88.0315,70.2454,289.8695,0,U,61878,999,9693,.73819E-4,.8346E-4,0
STARLINK-11324 [DTC],2024-204F,2026-07-15T02:17:44.815776,15.69707207,.0000862,53.1594,88.3127,99.3426,260.7689,0,U,61879,999,9692,.23197E-5,-.307E-5,0
STARLINK-11328 [DTC],2024-204G,2026-07-15T02:10:41.547360,15.69694658,.0000922,53.1599,88.2771,83.9226,276.1897,0,U,61880,999,9692,-.26481E-5,-.909E-5,0
STARLINK-11329 [DTC],2024-204H,2026-07-14T23:00:14.348160,15.69752560,.0000518,53.1582,88.8767,67.0225,293.0847,0,U,61881,999,9690,-.59149E-4,-.7759E-4,0
STARLINK-11398 [DTC],2024-204J,2026-07-14T22:53:07.558944,15.69755669,.0001378,53.1594,88.8397,73.6417,286.4752,0,U,61882,999,9690,.5633E-4,.6253E-4,0
STARLINK-11383 [DTC],2024-204K,2026-07-15T01:42:25.670880,15.69707100,.0000803,53.1575,88.1492,124.6396,235.4698,0,U,61883,999,9692,-.85308E-5,-.1621E-4,0
STARLINK-11359 [DTC],2024-204L,2026-07-15T00:17:48.639264,15.69707179,.0000838,53.1589,88.4940,103.7192,256.3919,0,U,61884,999,9691,-.38145E-5,-.105E-4,0
STARLINK-11301 [DTC],2024-204M,2026-07-15T01:35:22.207200,15.69702967,.0001058,53.1592,88.1158,77.8695,282.2442,0,U,61885,999,9692,-.38384E-5,-.1053E-4,0
STARLINK-11351 [DTC],2024-204N,2026-07-15T02:59:58.934688,15.69705866,.0001199,53.1580,87.7677,107.2583,252.8566,0,U,61886,999,9693,.62702E-5,.171E-5,0
STARLINK-32410,2024-204P,2026-07-15T04:37:43.004640,15.34384888,.0000996,53.1587,252.3795,97.0953,263.0163,0,U,61887,999,9465,.27613E-4,.557E-5,0
STARLINK-32377,2024-204Q,2026-07-15T04:34:40.603008,15.34398696,.0001149,53.1583,252.3645,85.9860,274.1274,0,U,61888,999,9464,.49251E-4,.1288E-4,0
STARLINK-32292,2024-204R,2026-07-14T10:07:19.340832,15.34382984,.00011997,53.1592,256.0989,84.0683,276.0456,0,U,61889,999,9453,-.28321904E-4,-.1332E-4,0
